[{"OBJECT_NAME":"HAIYANG-3A","OBJECT_ID":"2023-176A","EPOCH":"2026-03-09T22:59:35.740320","MEAN_MOTION":14.34139944,"ECCENTRICITY":0.00087972,"INCLINATION":98.552,"RA_OF_ASC_NODE":148.0351,"ARG_OF_PERICENTER":324.745,"MEAN_ANOMALY":35.3152,"EPHEMERIS_TYPE":0,"CLASSIFICATION_TYPE":"U","NORAD_CAT_ID":58349,"ELEMENT_SET_NO":999,"REV_AT_EPOCH":12109,"BSTAR":7.6477628e-5,"MEAN_MOTION_DOT":1.7e-6,"MEAN_MOTION_DDOT":0},{"OBJECT_NAME":"COSMOS 2251 DEB","OBJECT_ID":"1993-036ANL","EPOCH":"2026-03-08T06:40:53.915520","MEAN_MOTION":14.4670988,"ECCENTRICITY":0.00679302,"INCLINATION":73.9637,"RA_OF_ASC_NODE":287.3717,"ARG_OF_PERICENTER":65.5858,"MEAN_ANOMALY":295.2368,"EPHEMERIS_TYPE":0,"CLASSIFICATION_TYPE":"U","NORAD_CAT_ID":35645,"ELEMENT_SET_NO":999,"REV_AT_EPOCH":88008,"BSTAR":0.00195135,"MEAN_MOTION_DOT":7.24e-5,"MEAN_MOTION_DDOT":0}]
